{"type": "FeatureCollection", "features": [{"type": "Feature", "properties": {"norad_id": 26766, "name": "INTELSAT 10 (IS-10)", "group": "intelsat", "lat": -7.627914746776641, "lon": -57.02358750113293, "alt_km": 36093.36824161497, "timestamp": "2025-12-10T04:57:29.273444+00:00", "meta": {"OBJECT_NAME": "INTELSAT 10 (IS-10)", "OBJECT_ID": "2001-019A", "EPOCH": "2025-12-09T15:29:15.575424", "MEAN_MOTION": 0.99078983, "ECCENTRICITY": 0.0007832, "INCLINATION": 8.6227, "RA_OF_ASC_NODE": 61.1879, "ARG_OF_PERICENTER": 222.8476, "MEAN_ANOMALY": 178.976, "EPHEMERIS_TYPE": 0, "CLASSIFICATION_TYPE": "U", "NORAD_CAT_ID": 26766, "ELEMENT_SET_NO": 999, "REV_AT_EPOCH": 4370, "BSTAR": 0, "MEAN_MOTION_DOT": -2.84e-06, "MEAN_MOTION_DDOT": 0}, "tle": {"line1": "1 26766U 01019A   25343.64531916 -.00000284  00000+0  00000+0 0  9993", "line2": "2 26766   8.6227  61.1879 0007832 222.8476 178.9760  0.99078983 43702"}}, "geometry": {"type": "Point", "coordinates": [-57.02358750113293, -7.627914746776641]}}, {"type": "Feature", "properties": {"norad_id": 26900, "name": "INTELSAT 902 (IS-902)", "group": "intelsat", "lat": 2.7693042419362657, "lon": 103.21201686649523, "alt_km": 35802.21056279791, "timestamp": "2025-12-10T04:57:29.273468+00:00", "meta": {"OBJECT_NAME": "INTELSAT 902 (IS-902)", "OBJECT_ID": "2001-039A", "EPOCH": "2025-12-01T16:59:59.311968", "MEAN_MOTION": 1.00270327, "ECCENTRICITY": 0.00043097, "INCLINATION": 5.6187, "RA_OF_ASC_NODE": 74.2002, "ARG_OF_PERICENTER": 175.119, "MEAN_ANOMALY": 26.3816, "EPHEMERIS_TYPE": 0, "CLASSIFICATION_TYPE": "U", "NORAD_CAT_ID": 26900, "ELEMENT_SET_NO": 999, "REV_AT_EPOCH": 8871, "BSTAR": 0, "MEAN_MOTION_DOT": -2.63e-06, "MEAN_MOTION_DDOT": 0}, "tle": {"line1": "1 26900U 01039A   25335.70832537 -.00000263  00000+0  00000+0 0  9993", "line2": "2 26900   5.6187  74.2002 0004309 175.1190  26.3816  1.00270327 88713"}}, "geometry": {"type": "Point", "coordinates": [103.21201686649523, 2.7693042419362657]}}, {"type": "Feature", "properties": {"norad_id": 27380, "name": "INTELSAT 904 (IS-904)", "group": "intelsat", "lat": 4.992830807214761, "lon": 121.86160154288216, "alt_km": 35791.30430735289, "timestamp": "2025-12-10T04:57:29.273485+00:00", "meta": {"OBJECT_NAME": "INTELSAT 904 (IS-904)", "OBJECT_ID": "2002-007A", "EPOCH": "2025-12-09T11:42:40.881024", "MEAN_MOTION": 1.00273083, "ECCENTRICITY": 0.0001514, "INCLINATION": 6.4469, "RA_OF_ASC_NODE": 71.4685, "ARG_OF_PERICENTER": 215.3872, "MEAN_ANOMALY": 295.774, "EPHEMERIS_TYPE": 0, "CLASSIFICATION_TYPE": "U", "NORAD_CAT_ID": 27380, "ELEMENT_SET_NO": 999, "REV_AT_EPOCH": 4986, "BSTAR": 0, "MEAN_MOTION_DOT": -2.24e-06, "MEAN_MOTION_DDOT": 0}, "tle": {"line1": "1 27380U 02007A   25343.48797316 -.00000224  00000+0  00000+0 0  9998", "line2": "2 27380   6.4469  71.4685 0001514 215.3872 295.7740  1.00273083 49866"}}, "geometry": {"type": "Point", "coordinates": [121.86160154288216, 4.992830807214761]}}, {"type": "Feature", "properties": {"norad_id": 27426, "name": "DIRECTV 5 (TEMPO 1)", "group": "intelsat", "lat": -2.4537696952790173, "lon": 43.55919506806423, "alt_km": 35795.84428107103, "timestamp": "2025-12-10T04:57:29.273498+00:00", "meta": {"OBJECT_NAME": "DIRECTV 5 (TEMPO 1)", "OBJECT_ID": "2002-023A", "EPOCH": "2025-12-09T12:28:39.654624", "MEAN_MOTION": 1.00272054, "ECCENTRICITY": 0.00039085, "INCLINATION": 4.3941, "RA_OF_ASC_NODE": 77.689, "ARG_OF_PERICENTER": 200.7432, "MEAN_ANOMALY": 237.1271, "EPHEMERIS_TYPE": 0, "CLASSIFICATION_TYPE": "U", "NORAD_CAT_ID": 27426, "ELEMENT_SET_NO": 999, "REV_AT_EPOCH": 8622, "BSTAR": 0, "MEAN_MOTION_DOT": -5.5e-07, "MEAN_MOTION_DDOT": 0}, "tle": {"line1": "1 27426U 02023A   25343.51990341 -.00000055  00000+0  00000+0 0  9996", "line2": "2 27426   4.3941  77.6890 0003908 200.7432 237.1271  1.00272054 86221"}}, "geometry": {"type": "Point", "coordinates": [43.55919506806423, -2.4537696952790173]}}, {"type": "Feature", "properties": {"norad_id": 27438, "name": "INTELSAT 905 (IS-905)", "group": "intelsat", "lat": -5.177602508500585, "lon": 16.545732860738173, "alt_km": 35791.343534974025, "timestamp": "2025-12-10T04:57:29.273511+00:00", "meta": {"OBJECT_NAME": "INTELSAT 905 (IS-905)", "OBJECT_ID": "2002-027A", "EPOCH": "2025-12-09T11:59:00.274272", "MEAN_MOTION": 1.00271823, "ECCENTRICITY": 0.00028473, "INCLINATION": 6.2778, "RA_OF_ASC_NODE": 72.0923, "ARG_OF_PERICENTER": 191.5585, "MEAN_ANOMALY": 217.3829, "EPHEMERIS_TYPE": 0, "CLASSIFICATION_TYPE": "U", "NORAD_CAT_ID": 27438, "ELEMENT_SET_NO": 999, "REV_AT_EPOCH": 4946, "BSTAR": 0, "MEAN_MOTION_DOT": 9.5e-07, "MEAN_MOTION_DDOT": 0}, "tle": {"line1": "1 27438U 02027A   25343.49930873  .00000095  00000+0  00000+0 0  9997", "line2": "2 27438   6.2778  72.0923 0002847 191.5585 217.3829  1.00271823 49463"}}, "geometry": {"type": "Point", "coordinates": [16.545732860738173, -5.177602508500585]}}, {"type": "Feature", "properties": {"norad_id": 27445, "name": "GALAXY 3C (G-3C)", "group": "intelsat", "lat": -1.1933307701867175, "lon": 58.71421109433432, "alt_km": 35788.77278688863, "timestamp": "2025-12-10T04:57:29.273523+00:00", "meta": {"OBJECT_NAME": "GALAXY 3C (G-3C)", "OBJECT_ID": "2002-030A", "EPOCH": "2025-12-09T17:12:39.124800", "MEAN_MOTION": 1.00271027, "ECCENTRICITY": 0.0001125, "INCLINATION": 3.2569, "RA_OF_ASC_NODE": 80.5344, "ARG_OF_PERICENTER": 97.2007, "MEAN_ANOMALY": 64.269, "EPHEMERIS_TYPE": 0, "CLASSIFICATION_TYPE": "U", "NORAD_CAT_ID": 27445, "ELEMENT_SET_NO": 999, "REV_AT_EPOCH": 4459, "BSTAR": 0, "MEAN_MOTION_DOT": -1.5e-06, "MEAN_MOTION_DDOT": 0}, "tle": {"line1": "1 27445U 02030A   25343.71711950 -.00000150  00000+0  00000+0 0  9990", "line2": "2 27445   3.2569  80.5344 0001125  97.2007  64.2690  1.00271027 44596"}}, "geometry": {"type": "Point", "coordinates": [58.71421109433432, -1.1933307701867175]}}, {"type": "Feature", "properties": {"norad_id": 27513, "name": "INTELSAT 906 (IS-906)", "group": "intelsat", "lat": 3.2324478874375924, "lon": -142.2376140443825, "alt_km": 35768.53132078832, "timestamp": "2025-12-10T04:57:29.273535+00:00", "meta": {"OBJECT_NAME": "INTELSAT 906 (IS-906)", "OBJECT_ID": "2002-041A", "EPOCH": "2025-12-09T18:22:38.614080", "MEAN_MOTION": 1.00271033, "ECCENTRICITY": 0.0006114, "INCLINATION": 5.3212, "RA_OF_ASC_NODE": 75.2669, "ARG_OF_PERICENTER": 190.4296, "MEAN_ANOMALY": 152.8499, "EPHEMERIS_TYPE": 0, "CLASSIFICATION_TYPE": "U", "NORAD_CAT_ID": 27513, "ELEMENT_SET_NO": 999, "REV_AT_EPOCH": 8512, "BSTAR": 0, "MEAN_MOTION_DOT": 1.5e-07, "MEAN_MOTION_DDOT": 0}, "tle": {"line1": "1 27513U 02041A   25343.76572470  .00000015  00000+0  00000+0 0  9994", "line2": "2 27513   5.3212  75.2669 0006114 190.4296 152.8499  1.00271033 85122"}}, "geometry": {"type": "Point", "coordinates": [-142.2376140443825, 3.2324478874375924]}}, {"type": "Feature", "properties": {"norad_id": 27954, "name": "GALAXY 13 (HORIZONS-1)", "group": "intelsat", "lat": -0.9147861479075597, "lon": 3.5789343710578194, "alt_km": 35790.15186784925, "timestamp": "2025-12-10T04:57:29.273548+00:00", "meta": {"OBJECT_NAME": "GALAXY 13 (HORIZONS-1)", "OBJECT_ID": "2003-044A", "EPOCH": "2025-12-09T14:04:00.761088", "MEAN_MOTION": 1.00270127, "ECCENTRICITY": 0.0002023, "INCLINATION": 0.9273, "RA_OF_ASC_NODE": 86.5108, "ARG_OF_PERICENTER": 162.3964, "MEAN_ANOMALY": 250.6744, "EPHEMERIS_TYPE": 0, "CLASSIFICATION_TYPE": "U", "NORAD_CAT_ID": 27954, "ELEMENT_SET_NO": 999, "REV_AT_EPOCH": 4467, "BSTAR": 0, "MEAN_MOTION_DOT": 1.35e-06, "MEAN_MOTION_DDOT": 0}, "tle": {"line1": "1 27954U 03044A   25343.58611992  .00000135  00000+0  00000+0 0  9993", "line2": "2 27954   0.9273  86.5108 0002023 162.3964 250.6744  1.00270127 44675"}}, "geometry": {"type": "Point", "coordinates": [3.5789343710578194, -0.9147861479075597]}}, {"type": "Feature", "properties": {"norad_id": 28358, "name": "INTELSAT 10-02", "group": "intelsat", "lat": 0.029696293316393067, "lon": 152.56774712568387, "alt_km": 35789.665547595534, "timestamp": "2025-12-10T04:57:29.273560+00:00", "meta": {"OBJECT_NAME": "INTELSAT 10-02", "OBJECT_ID": "2004-022A", "EPOCH": "2025-12-09T13:34:07.706208", "MEAN_MOTION": 1.00269981, "ECCENTRICITY": 0.0001115, "INCLINATION": 0.0308, "RA_OF_ASC_NODE": 72.1506, "ARG_OF_PERICENTER": 211.8162, "MEAN_ANOMALY": 357.1457, "EPHEMERIS_TYPE": 0, "CLASSIFICATION_TYPE": "U", "NORAD_CAT_ID": 28358, "ELEMENT_SET_NO": 999, "REV_AT_EPOCH": 7865, "BSTAR": 0, "MEAN_MOTION_DOT": -9e-08, "MEAN_MOTION_DDOT": 0}, "tle": {"line1": "1 28358U 04022A   25343.56536697 -.00000009  00000+0  00000+0 0  9996", "line2": "2 28358   0.0308  72.1506 0001115 211.8162 357.1457  1.00269981 78653"}}, "geometry": {"type": "Point", "coordinates": [152.56774712568387, 0.029696293316393067]}}, {"type": "Feature", "properties": {"norad_id": 28626, "name": "XM-3 (RHYTHM)", "group": "intelsat", "lat": -0.07137408153009794, "lon": -80.10916667192834, "alt_km": 36157.41683562952, "timestamp": "2025-12-10T04:57:29.273572+00:00", "meta": {"OBJECT_NAME": "XM-3 (RHYTHM)", "OBJECT_ID": "2005-008A", "EPOCH": "2025-12-09T14:54:38.529792", "MEAN_MOTION": 0.98953659, "ECCENTRICITY": 0.0001381, "INCLINATION": 0.1668, "RA_OF_ASC_NODE": 81.2156, "ARG_OF_PERICENTER": 264.7021, "MEAN_ANOMALY": 85.4801, "EPHEMERIS_TYPE": 0, "CLASSIFICATION_TYPE": "U", "NORAD_CAT_ID": 28626, "ELEMENT_SET_NO": 999, "REV_AT_EPOCH": 4071, "BSTAR": 0, "MEAN_MOTION_DOT": -2.36e-06, "MEAN_MOTION_DDOT": 0}, "tle": {"line1": "1 28626U 05008A   25343.62127928 -.00000236  00000+0  00000+0 0  9991", "line2": "2 28626   0.1668  81.2156 0001381 264.7021  85.4801  0.98953659 40717"}}, "geometry": {"type": "Point", "coordinates": [-80.10916667192834, -0.07137408153009794]}}]}